{
  "norad_id": 46780,
  "name": "STARLINK-1832",
  "history": [
    {
      "epoch": "2026-03-28T22:00:01.999584Z",
      "apogee_km": 321.1811609064216,
      "perigee_km": 315.7159435055555,
      "latitude_deg": -38.43174315721941,
      "longitude_deg": -21.692832205785223,
      "height_km": 329.267737119849,
      "semi_major_axis_km": 6696.585552205988,
      "eccentricity": 0.00040806,
      "inclination_deg": 53.0419,
      "raan_deg": 171.0634,
      "arg_perigee_deg": 1.2598,
      "mean_anomaly_deg": 308.0381,
      "mean_motion_rev_day": 15.84246038
    },
    {
      "epoch": "2026-03-29T06:00:02.998944Z",
      "apogee_km": 320.6688548694983,
      "perigee_km": 315.19548792879687,
      "latitude_deg": 38.970319201912304,
      "longitude_deg": -70.0428992460721,
      "height_km": 319.46852202595994,
      "semi_major_axis_km": 6696.069171399147,
      "eccentricity": 0.0004087,
      "inclination_deg": 53.0383,
      "raan_deg": 169.3789,
      "arg_perigee_deg": 3.2224,
      "mean_anomaly_deg": 48.4537,
      "mean_motion_rev_day": 15.844293
    },
    {
      "epoch": "2026-03-30T06:00:01.999296Z",
      "apogee_km": 319.1887525801085,
      "perigee_km": 313.2910065492115,
      "latitude_deg": -0.06722087110501644,
      "longitude_deg": -113.37788826125998,
      "height_km": 314.2249302259401,
      "semi_major_axis_km": 6694.376879564659,
      "eccentricity": 0.0004405,
      "inclination_deg": 53.0382,
      "raan_deg": 164.3252,
      "arg_perigee_deg": 6.2775,
      "mean_anomaly_deg": 353.7467,
      "mean_motion_rev_day": 15.85030137
    },
    {
      "epoch": "2026-03-30T06:00:02.000160Z",
      "apogee_km": 319.1884848050331,
      "perigee_km": 313.29127432428686,
      "latitude_deg": -0.06722046817233782,
      "longitude_deg": -113.37789156962855,
      "height_km": 314.22519634717446,
      "semi_major_axis_km": 6694.376879564659,
      "eccentricity": 0.00044046,
      "inclination_deg": 53.0382,
      "raan_deg": 164.3252,
      "arg_perigee_deg": 6.2775,
      "mean_anomaly_deg": 353.7467,
      "mean_motion_rev_day": 15.85030137
    },
    {
      "epoch": "2026-03-30T14:00:03.000384Z",
      "apogee_km": 318.93933505619043,
      "perigee_km": 312.4753573248481,
      "latitude_deg": 51.15283175600981,
      "longitude_deg": -123.63903984319043,
      "height_km": 322.1162673039003,
      "semi_major_axis_km": 6693.844346190519,
      "eccentricity": 0.00048283,
      "inclination_deg": 53.0378,
      "raan_deg": 162.6414,
      "arg_perigee_deg": 6.9576,
      "mean_anomaly_deg": 96.4319,
      "mean_motion_rev_day": 15.85219288
    },
    {
      "epoch": "2026-03-30T22:00:00.999936Z",
      "apogee_km": 318.2550604865992,
      "perigee_km": 311.8949027331937,
      "latitude_deg": -21.282566033668193,
      "longitude_deg": -160.40565476870373,
      "height_km": 324.07473511878476,
      "semi_major_axis_km": 6693.211981609897,
      "eccentricity": 0.00047512,
      "inclination_deg": 53.0379,
      "raan_deg": 160.9536,
      "arg_perigee_deg": 8.6631,
      "mean_anomaly_deg": 198.1222,
      "mean_motion_rev_day": 15.85443947
    },
    {
      "epoch": "2026-03-31T20:00:01.999008Z",
      "apogee_km": 316.93555235579424,
      "perigee_km": 310.20235782378313,
      "latitude_deg": 32.99842662423332,
      "longitude_deg": 56.17295201029521,
      "height_km": 312.90022026850727,
      "semi_major_axis_km": 6691.705955089788,
      "eccentricity": 0.0005031,
      "inclination_deg": 53.0371,
      "raan_deg": 156.3139,
      "arg_perigee_deg": 11.0614,
      "mean_anomaly_deg": 31.7221,
      "mean_motion_rev_day": 15.85979204
    },
    {
      "epoch": "2026-04-01T20:00:01.999008Z",
      "apogee_km": 315.4573977325663,
      "perigee_km": 308.49566559151845,
      "latitude_deg": -2.7803742531677713,
      "longitude_deg": 18.96686159763678,
      "height_km": 309.9818149907894,
      "semi_major_axis_km": 6690.113531662042,
      "eccentricity": 0.0005203,
      "inclination_deg": 53.0372,
      "raan_deg": 151.2485,
      "arg_perigee_deg": 14.9137,
      "mean_anomaly_deg": 341.7485,
      "mean_motion_rev_day": 15.86545495
    },
    {
      "epoch": "2026-04-02T20:00:01.999008Z",
      "apogee_km": 313.4990619970986,
      "perigee_km": 306.2866905785095,
      "latitude_deg": -36.120983136360714,
      "longitude_deg": -18.10747666100482,
      "height_km": 320.0364631015412,
      "semi_major_axis_km": 6688.029876287804,
      "eccentricity": 0.0005392,
      "inclination_deg": 53.0359,
      "raan_deg": 146.1777,
      "arg_perigee_deg": 19.6962,
      "mean_anomaly_deg": 293.1364,
      "mean_motion_rev_day": 15.87286985
    }
  ]
}